[{"OBJECT_NAME":"STARLINK-5491","OBJECT_ID":"2023-013B","EPOCH":"2026-03-09T22:00:01.999584","MEAN_MOTION":15.07657926,"ECCENTRICITY":0.00020766,"INCLINATION":43.0002,"RA_OF_ASC_NODE":286.1666,"ARG_OF_PERICENTER":260.7661,"MEAN_ANOMALY":60.7517,"EPHEMERIS_TYPE":0,"CLASSIFICATION_TYPE":"U","NORAD_CAT_ID":55332,"ELEMENT_SET_NO":999,"REV_AT_EPOCH":577,"BSTAR":0.0029645677,"MEAN_MOTION_DOT":0.00046044,"MEAN_MOTION_DDOT":0},{"OBJECT_NAME":"CZ-4B DEB","OBJECT_ID":"1999-057SZ","EPOCH":"2026-03-02T21:23:50.470368","MEAN_MOTION":14.9551257,"ECCENTRICITY":0.0057647,"INCLINATION":98.7518,"RA_OF_ASC_NODE":85.7766,"ARG_OF_PERICENTER":19.8773,"MEAN_ANOMALY":340.4672,"EPHEMERIS_TYPE":0,"CLASSIFICATION_TYPE":"U","NORAD_CAT_ID":39052,"ELEMENT_SET_NO":999,"REV_AT_EPOCH":72291,"BSTAR":0.0001718,"MEAN_MOTION_DOT":1.891e-5,"MEAN_MOTION_DDOT":0}]
